H1 CPF 01  gfz 2022 04 21 12  6112 tandemx   
H2 1003001  6202 36605    2022 04 21 12 59 42 2022 04 26 00 00 42   120 1 1  0 0 0
H9
10 0 59694  32382.000000  0    4854022.847  -4867273.980   -472154.566
10 0 59694  32502.000000  0    4642159.288  -4905845.956  -1368462.046
10 0 59694  32622.000000  0    4349372.313  -4854362.960  -2240713.148
10 0 59694  32742.000000  0    3982417.575  -4712440.169  -3073606.924
10 0 59694  32862.000000  0    3549334.839  -4481406.884  -3852566.060
10 0 59694  32982.000000  0    3059269.618  -4164295.501  -4563993.080
10 0 59694  33102.000000  0    2522276.276  -3765796.221  -5195505.303
10 0 59694  33222.000000  0    1949107.839  -3292179.910  -5736142.535
10 0 59694  33342.000000  0    1350999.847  -2751193.334  -6176546.706
10 0 59694  33462.000000  0     739450.370  -2151928.291  -6509113.910
10 0 59694  33582.000000  0     126000.209  -1504665.193  -6728115.312
10 0 59694  33702.000000  0    -477981.219   -820695.617  -6829785.099
10 0 59694  33822.000000  0   -1061500.939   -112127.648  -6812377.312
10 0 59694  33942.000000  0   -1614137.640    608323.524  -6676192.045
10 0 59694  34062.000000  0   -2126223.449   1327557.664  -6423570.463
10 0 59694  34182.000000  0   -2589009.075   2032321.704  -6058858.968
10 0 59694  34302.000000  0   -2994811.908   2709448.290  -5588343.212
10 0 59694  34422.000000  0   -3337144.554   3346099.316  -5020151.292
10 0 59694  34542.000000  0   -3610822.437   3930009.612  -4364125.231
10 0 59694  34662.000000  0   -3812046.889   4449726.025  -3631660.306
10 0 59694  34782.000000  0   -3938460.398   4894836.115  -2835515.126
10 0 59694  34902.000000  0   -3989174.713   5256182.365  -1989596.221
10 0 59694  35022.000000  0   -3964771.320   5526057.398  -1108718.359
10 0 59694  35142.000000  0   -3867271.958   5698375.503   -208343.206
10 0 59694  35262.000000  0   -3700078.778   5768812.101    695697.669
10 0 59694  35382.000000  0   -3467887.287   5734909.964   1587488.796
10 0 59694  35502.000000  0   -3176571.459   5596148.805   2451321.573
10 0 59694  35622.000000  0   -2833043.779   5353973.135   3271981.011
10 0 59694  35742.000000  0   -2445096.047   5011779.926   4035019.873
10 0 59694  35862.000000  0   -2021224.905   4574868.195   4727017.100
10 0 59694  35982.000000  0   -1570446.623   4050350.973   5335815.530
10 0 59694  36102.000000  0   -1102104.713   3447031.757   5850734.796
10 0 59694  36222.000000  0    -625675.863   2775248.509   6262754.342
10 0 59694  36342.000000  0    -150578.636   2046689.687   6564665.305
10 0 59694  36462.000000  0     314011.601   1274187.129   6751190.773
10 0 59694  36582.000000  0     759339.320    471487.013   6819072.820
10 0 59694  36702.000000  0    1177232.789   -346994.690   6767124.953
10 0 59694  36822.000000  0    1560253.180  -1166430.304   6596252.684
10 0 59694  36942.000000  0    1901827.002  -1971848.704   6309438.806
10 0 59694  37062.000000  0    2196359.566  -2748408.731   5911695.414
10 0 59694  37182.000000  0    2439328.074  -3481674.564   5409981.547
10 0 59694  37302.000000  0    2627352.128  -4157887.166   4813086.529
10 0 59694  37422.000000  0    2758240.636  -4764227.108   4131481.869
10 0 59694  37542.000000  0    2831015.300  -5289064.648   3377141.267
10 0 59694  37662.000000  0    2845908.285  -5722190.599   2563331.827
10 0 59694  37782.000000  0    2804334.269  -6055023.248   1704378.922
10 0 59694  37902.000000  0    2708836.841  -6280783.710    815409.652
10 0 59694  38022.000000  0    2563012.559  -6394638.247    -87918.591
10 0 59694  38142.000000  0    2371412.869  -6393803.857   -989702.475
10 0 59694  38262.000000  0    2139425.406  -6277610.667  -1874083.210
10 0 59694  38382.000000  0    1873138.657  -6047521.832  -2725532.825
10 0 59694  38502.000000  0    1579193.003  -5707110.999  -3529134.399
10 0 59694  38622.000000  0    1264622.892  -5261994.512  -4270845.004
10 0 59694  38742.000000  0     936696.521  -4719727.026  -4937739.190
10 0 59694  38862.000000  0     602754.195  -4089661.569  -5518228.645
10 0 59694  38982.000000  0     270049.730  -3382777.959  -6002255.323
10 0 59694  39102.000000  0     -54401.687  -2611483.343  -6381454.948
10 0 59694  39222.000000  0    -363966.093  -1789389.996  -6649289.850
10 0 59694  39342.000000  0    -652521.432   -931074.614  -6801150.789
10 0 59694  39462.000000  0    -914573.905    -51822.500  -6834428.264
10 0 59694  39582.000000  0   -1145359.056    832639.499  -6748551.347
10 0 59694  39702.000000  0   -1340926.217   1706416.661  -6544996.007
10 0 59694  39822.000000  0   -1498204.587   2553724.639  -6227262.245
10 0 59694  39942.000000  0   -1615050.915   3359168.484  -5800822.079
10 0 59694  40062.000000  0   -1690278.096   4108020.070  -5273035.044
10 0 59694  40182.000000  0   -1723663.584   4786487.916  -4653032.957
10 0 59694  40302.000000  0   -1715938.174   5381976.329  -3951572.934
10 0 59694  40422.000000  0   -1668754.066   5883326.618  -3180859.522
10 0 59694  40542.000000  0   -1584632.543   6281035.341  -2354339.623
10 0 59694  40662.000000  0   -1466893.042   6567446.349  -1486472.276
10 0 59694  40782.000000  0   -1319564.098   6736909.377   -592475.371
10 0 59694  40902.000000  0   -1147278.569   6785901.781    311943.511
10 0 59694  41022.000000  0    -955154.819   6713110.692   1210870.165
10 0 59694  41142.000000  0    -748667.506   6519468.867   2088474.961
10 0 59694  41262.000000  0    -533510.922   6208142.280   2929301.008
10 0 59694  41382.000000  0    -315458.816   5784474.224   3718542.779
10 0 59694  41502.000000  0    -100224.915   5255888.196   4442311.566
10 0 59694  41622.000000  0     106673.383   4631749.309   5087886.584
10 0 59694  41742.000000  0     300045.934   3923184.156   5643936.412
10 0 59694  41862.000000  0     475149.961   3142875.717   6100713.699
10 0 59694  41982.000000  0     627797.540   2304827.713   6450222.452
10 0 59694  42102.000000  0     754448.529   1424107.519   6686351.599
10 0 59694  42222.000000  0     852287.463    516571.424   6804976.121
10 0 59694  42342.000000  0     919282.877   -401421.297   6804023.779
10 0 59694  42462.000000  0     954228.174  -1313302.266   6683510.264
10 0 59694  42582.000000  0     956763.318  -2202593.089   6445539.418
10 0 59694  42702.000000  0     927377.055  -3053203.425   6094269.434
10 0 59694  42822.000000  0     867389.072  -3849724.618   5635843.528
10 0 59694  42942.000000  0     778913.347  -4577710.495   5078286.459
10 0 59694  43062.000000  0     664803.980  -5223943.338   4431370.818
10 0 59694  43182.000000  0     528583.384  -5776682.486   3706452.139
10 0 59694  43302.000000  0     374353.630  -6225888.299   2916272.208
10 0 59694  43422.000000  0     206693.363  -6563414.808   2074734.722
10 0 59694  43542.000000  0      30542.311  -6783166.071   1196658.047
10 0 59694  43662.000000  0    -148923.117  -6881215.297    297509.548
10 0 59694  43782.000000  0    -326421.445  -6855880.158   -606876.647
10 0 59694  43902.000000  0    -496699.799  -6707750.519  -1500588.584
10 0 59694  44022.000000  0    -654666.405  -6439670.113  -2367924.439
10 0 59694  44142.000000  0    -795519.043  -6056674.791  -3193674.405
10 0 59694  44262.000000  0    -914866.508  -5565887.836  -3963391.774
10 0 59694  44382.000000  0   -1008839.650  -4976374.509  -4663646.545
10 0 59694  44502.000000  0   -1074189.335  -4298961.587  -5282255.456
10 0 59694  44622.000000  0   -1108369.550  -3546027.746  -5808486.494
10 0 59694  44742.000000  0   -1109603.734  -2731269.122  -6233235.469
10 0 59694  44862.000000  0   -1076933.489  -1869444.850  -6549172.467
10 0 59694  44982.000000  0   -1010249.113   -976108.448  -6750856.554
10 0 59694  45102.000000  0    -910301.948    -67329.888  -6834819.792
10 0 59694  45222.000000  0    -778697.474    840588.309  -6799619.676
10 0 59694  45342.000000  0    -617869.650   1731395.666  -6645860.601
10 0 59694  45462.000000  0    -431037.732   2589176.839  -6376184.653
10 0 59694  45582.000000  0    -222145.311   3398629.800  -5995232.582
10 0 59694  45702.000000  0       4218.491   4145336.666  -5509573.035
10 0 59694  45822.000000  0     242913.624   4816020.349  -4927599.534
10 0 59694  45942.000000  0     488357.790   5398785.110  -4259397.517
10 0 59694  46062.000000  0     734648.061   5883336.083  -3516579.880
10 0 59694  46182.000000  0     975692.945   6261171.678  -2712093.265
10 0 59694  46302.000000  0    1205352.183   6525745.291  -1859997.815
10 0 59694  46422.000000  0    1417581.227   6672591.721   -975222.617
10 0 59694  46542.000000  0    1606577.019   6699413.821    -73301.153
10 0 59694  46662.000000  0    1766920.969   6606125.482    829907.707
10 0 59694  46782.000000  0    1893714.697   6394850.481   1718505.920
10 0 59694  46902.000000  0    1982706.227   6069877.656   2576844.136
10 0 59694  47022.000000  0    2030403.111   5637572.920   3389805.116
10 0 59694  47142.000000  0    2034169.409   5106250.531   4143077.666
10 0 59694  47262.000000  0    1992303.146   4486005.329   4823414.235
10 0 59694  47382.000000  0    1904093.719   3788509.457   5418866.450
10 0 59694  47502.000000  0    1769856.758   3026782.863   5918990.695
10 0 59694  47622.000000  0    1590948.061   2214944.223   6315027.154
10 0 59694  47742.000000  0    1369754.700   1367943.255   6600048.703
10 0 59694  47862.000000  0    1109664.118    501280.866   6769075.452
10 0 59694  47982.000000  0     815012.105   -369274.837   6819155.304
10 0 59694  48102.000000  0     491010.403  -1227974.353   6749413.883
10 0 59694  48222.000000  0     143654.274  -2059372.176   6561069.364
10 0 59694  48342.000000  0    -220388.570  -2848604.757   6257412.460
10 0 59694  48462.000000  0    -593904.966  -3581657.784   5843750.887
10 0 59694  48582.000000  0    -969276.314  -4245615.546   5327320.092
10 0 59694  48702.000000  0   -1338630.832  -4828891.710   4717164.859
10 0 59694  48822.000000  0   -1694007.228  -5321440.020   4023988.752
99
